[{"OBJECT_NAME":"GOES 1 (SMS-C)","OBJECT_ID":"1975-100A","EPOCH":"2026-03-03T15:12:54.228672","MEAN_MOTION":1.00237278,"ECCENTRICITY":0.0005424,"INCLINATION":4.8766,"RA_OF_ASC_NODE":278.7592,"ARG_OF_PERICENTER":359.7442,"MEAN_ANOMALY":350.5619,"EPHEMERIS_TYPE":0,"CLASSIFICATION_TYPE":"U","NORAD_CAT_ID":8366,"ELEMENT_SET_NO":999,"REV_AT_EPOCH":18400,"BSTAR":0,"MEAN_MOTION_DOT":-5.0e-8,"MEAN_MOTION_DDOT":0},{"OBJECT_NAME":"GOES 2","OBJECT_ID":"1977-048A","EPOCH":"2026-03-03T12:55:36.789600","MEAN_MOTION":0.99397773,"ECCENTRICITY":0.0013885,"INCLINATION":6.6712,"RA_OF_ASC_NODE":294.2261,"ARG_OF_PERICENTER":47.562,"MEAN_ANOMALY":131.7731,"EPHEMERIS_TYPE":0,"CLASSIFICATION_TYPE":"U","NORAD_CAT_ID":10061,"ELEMENT_SET_NO":999,"REV_AT_EPOCH":4522,"BSTAR":0,"MEAN_MOTION_DOT":-2.83e-6,"MEAN_MOTION_DDOT":0},{"OBJECT_NAME":"GOES 3","OBJECT_ID":"1978-062A","EPOCH":"2026-03-03T11:25:11.552160","MEAN_MOTION":0.99365908,"ECCENTRICITY":0.00028313,"INCLINATION":7.1409,"RA_OF_ASC_NODE":300.0544,"ARG_OF_PERICENTER":354.6494,"MEAN_ANOMALY":199.313,"EPHEMERIS_TYPE":0,"CLASSIFICATION_TYPE":"U","NORAD_CAT_ID":10953,"ELEMENT_SET_NO":999,"REV_AT_EPOCH":12748,"BSTAR":0,"MEAN_MOTION_DOT":-2.67e-6,"MEAN_MOTION_DDOT":0},{"OBJECT_NAME":"GOES 4","OBJECT_ID":"1980-074A","EPOCH":"2026-03-03T08:53:40.092288","MEAN_MOTION":0.99231464,"ECCENTRICITY":0.00320891,"INCLINATION":8.2145,"RA_OF_ASC_NODE":303.7385,"ARG_OF_PERICENTER":103.015,"MEAN_ANOMALY":199.2874,"EPHEMERIS_TYPE":0,"CLASSIFICATION_TYPE":"U","NORAD_CAT_ID":11964,"ELEMENT_SET_NO":999,"REV_AT_EPOCH":12638,"BSTAR":0,"MEAN_MOTION_DOT":-2.54e-6,"MEAN_MOTION_DDOT":0},{"OBJECT_NAME":"GOES 5","OBJECT_ID":"1981-049A","EPOCH":"2026-03-03T03:23:13.936128","MEAN_MOTION":1.00211746,"ECCENTRICITY":0.00046693,"INCLINATION":9.5481,"RA_OF_ASC_NODE":316.3502,"ARG_OF_PERICENTER":336.7595,"MEAN_ANOMALY":190.2431,"EPHEMERIS_TYPE":0,"CLASSIFICATION_TYPE":"U","NORAD_CAT_ID":12472,"ELEMENT_SET_NO":999,"REV_AT_EPOCH":12178,"BSTAR":0,"MEAN_MOTION_DOT":-2.07e-6,"MEAN_MOTION_DDOT":0},{"OBJECT_NAME":"GOES 6","OBJECT_ID":"1983-041A","EPOCH":"2026-03-03T07:54:34.576704","MEAN_MOTION":1.00217666,"ECCENTRICITY":0.00023608,"INCLINATION":10.3592,"RA_OF_ASC_NODE":321.907,"ARG_OF_PERICENTER":306.4375,"MEAN_ANOMALY":262.1209,"EPHEMERIS_TYPE":0,"CLASSIFICATION_TYPE":"U","NORAD_CAT_ID":14050,"ELEMENT_SET_NO":999,"REV_AT_EPOCH":21495,"BSTAR":0,"MEAN_MOTION_DOT":-8.2e-7,"MEAN_MOTION_DDOT":0},{"OBJECT_NAME":"GOES 7","OBJECT_ID":"1987-022A","EPOCH":"2026-03-03T09:44:14.504352","MEAN_MOTION":0.99894387,"ECCENTRICITY":0.00039437,"INCLINATION":13.0217,"RA_OF_ASC_NODE":338.3812,"ARG_OF_PERICENTER":14.6167,"MEAN_ANOMALY":182.393,"EPHEMERIS_TYPE":0,"CLASSIFICATION_TYPE":"U","NORAD_CAT_ID":17561,"ELEMENT_SET_NO":999,"REV_AT_EPOCH":12590,"BSTAR":0,"MEAN_MOTION_DOT":6.8e-7,"MEAN_MOTION_DDOT":0},{"OBJECT_NAME":"GOES 8","OBJECT_ID":"1994-022A","EPOCH":"2026-03-03T14:53:33.581184","MEAN_MOTION":0.98908132,"ECCENTRICITY":0.0004983,"INCLINATION":14.3398,"RA_OF_ASC_NODE":14.4761,"ARG_OF_PERICENTER":14.0671,"MEAN_ANOMALY":168.0688,"EPHEMERIS_TYPE":0,"CLASSIFICATION_TYPE":"U","NORAD_CAT_ID":23051,"ELEMENT_SET_NO":999,"REV_AT_EPOCH":12308,"BSTAR":0,"MEAN_MOTION_DOT":-2.37e-6,"MEAN_MOTION_DDOT":0},{"OBJECT_NAME":"GOES 9","OBJECT_ID":"1995-025A","EPOCH":"2026-03-03T18:50:48.346656","MEAN_MOTION":0.98798832,"ECCENTRICITY":0.0003648,"INCLINATION":13.8692,"RA_OF_ASC_NODE":15.3176,"ARG_OF_PERICENTER":210.9063,"MEAN_ANOMALY":141.1665,"EPHEMERIS_TYPE":0,"CLASSIFICATION_TYPE":"U","NORAD_CAT_ID":23581,"ELEMENT_SET_NO":999,"REV_AT_EPOCH":11171,"BSTAR":0,"MEAN_MOTION_DOT":-9.9e-7,"MEAN_MOTION_DDOT":0},{"OBJECT_NAME":"GOES 10","OBJECT_ID":"1997-019A","EPOCH":"2026-03-03T13:31:26.656608","MEAN_MOTION":0.99122396,"ECCENTRICITY":0.0031203,"INCLINATION":13.003,"RA_OF_ASC_NODE":21.8534,"ARG_OF_PERICENTER":239.1874,"MEAN_ANOMALY":202.6903,"EPHEMERIS_TYPE":0,"CLASSIFICATION_TYPE":"U","NORAD_CAT_ID":24786,"ELEMENT_SET_NO":999,"REV_AT_EPOCH":10502,"BSTAR":0,"MEAN_MOTION_DOT":-1.13e-6,"MEAN_MOTION_DDOT":0},{"OBJECT_NAME":"GOES 11","OBJECT_ID":"2000-022A","EPOCH":"2026-03-03T10:18:25.452000","MEAN_MOTION":0.99041196,"ECCENTRICITY":0.00059578,"INCLINATION":11.5782,"RA_OF_ASC_NODE":47.4531,"ARG_OF_PERICENTER":254.4527,"MEAN_ANOMALY":302.264,"EPHEMERIS_TYPE":0,"CLASSIFICATION_TYPE":"U","NORAD_CAT_ID":26352,"ELEMENT_SET_NO":999,"REV_AT_EPOCH":5142,"BSTAR":0,"MEAN_MOTION_DOT":-1.36e-6,"MEAN_MOTION_DDOT":0},{"OBJECT_NAME":"GOES 12","OBJECT_ID":"2001-031A","EPOCH":"2026-03-03T18:56:25.308384","MEAN_MOTION":0.99137459,"ECCENTRICITY":0.000876,"INCLINATION":11.9936,"RA_OF_ASC_NODE":38.1479,"ARG_OF_PERICENTER":295.8304,"MEAN_ANOMALY":54.4531,"EPHEMERIS_TYPE":0,"CLASSIFICATION_TYPE":"U","NORAD_CAT_ID":26871,"ELEMENT_SET_NO":999,"REV_AT_EPOCH":8971,"BSTAR":0,"MEAN_MOTION_DOT":-2.13e-6,"MEAN_MOTION_DDOT":0},{"OBJECT_NAME":"EWS-G1 (GOES 13)","OBJECT_ID":"2006-018A","EPOCH":"2026-03-03T15:16:31.382112","MEAN_MOTION":0.98784788,"ECCENTRICITY":0.0062002,"INCLINATION":4.259,"RA_OF_ASC_NODE":77.7119,"ARG_OF_PERICENTER":272.9811,"MEAN_ANOMALY":292.7975,"EPHEMERIS_TYPE":0,"CLASSIFICATION_TYPE":"U","NORAD_CAT_ID":29155,"ELEMENT_SET_NO":999,"REV_AT_EPOCH":4220,"BSTAR":0,"MEAN_MOTION_DOT":2.6e-7,"MEAN_MOTION_DDOT":0},{"OBJECT_NAME":"GOES 14","OBJECT_ID":"2009-033A","EPOCH":"2026-03-03T16:44:52.913760","MEAN_MOTION":1.00123964,"ECCENTRICITY":0.0002209,"INCLINATION":1.4171,"RA_OF_ASC_NODE":84.4315,"ARG_OF_PERICENTER":297.0894,"MEAN_ANOMALY":233.3639,"EPHEMERIS_TYPE":0,"CLASSIFICATION_TYPE":"U","NORAD_CAT_ID":35491,"ELEMENT_SET_NO":999,"REV_AT_EPOCH":553,"BSTAR":0,"MEAN_MOTION_DOT":1.15e-6,"MEAN_MOTION_DDOT":0},{"OBJECT_NAME":"EWS-G2 (GOES 15)","OBJECT_ID":"2010-008A","EPOCH":"2026-03-03T18:23:43.469376","MEAN_MOTION":1.00269377,"ECCENTRICITY":0.0001695,"INCLINATION":1.0075,"RA_OF_ASC_NODE":85.161,"ARG_OF_PERICENTER":23.0222,"MEAN_ANOMALY":32.7596,"EPHEMERIS_TYPE":0,"CLASSIFICATION_TYPE":"U","NORAD_CAT_ID":36411,"ELEMENT_SET_NO":999,"REV_AT_EPOCH":5858,"BSTAR":0,"MEAN_MOTION_DOT":8.0e-8,"MEAN_MOTION_DDOT":0},{"OBJECT_NAME":"GOES 16","OBJECT_ID":"2016-071A","EPOCH":"2026-03-03T13:34:41.141280","MEAN_MOTION":1.00271662,"ECCENTRICITY":0.0002571,"INCLINATION":0.1452,"RA_OF_ASC_NODE":90.1946,"ARG_OF_PERICENTER":216.7975,"MEAN_ANOMALY":313.3003,"EPHEMERIS_TYPE":0,"CLASSIFICATION_TYPE":"U","NORAD_CAT_ID":41866,"ELEMENT_SET_NO":999,"REV_AT_EPOCH":3404,"BSTAR":0,"MEAN_MOTION_DOT":-1.05e-6,"MEAN_MOTION_DDOT":0},{"OBJECT_NAME":"GOES 17","OBJECT_ID":"2018-022A","EPOCH":"2026-03-03T15:21:45.879840","MEAN_MOTION":1.0027041,"ECCENTRICITY":0.0002289,"INCLINATION":0.6662,"RA_OF_ASC_NODE":87.5708,"ARG_OF_PERICENTER":220.2416,"MEAN_ANOMALY":354.5211,"EPHEMERIS_TYPE":0,"CLASSIFICATION_TYPE":"U","NORAD_CAT_ID":43226,"ELEMENT_SET_NO":999,"REV_AT_EPOCH":2936,"BSTAR":0,"MEAN_MOTION_DOT":-1.96e-6,"MEAN_MOTION_DDOT":0}]
