GOES 1 (SMS-C)          
1 08366U 75100A   26062.63396098 -.00000005  00000+0  00000+0 0  9990
2 08366   4.8766 278.7592 0005424 359.7442 350.5619  1.00237278184007
GOES 2                  
1 10061U 77048A   26062.53862025 -.00000283  00000+0  00000+0 0  9993
2 10061   6.6712 294.2261 0013885  47.5620 131.7731  0.99397773 45227
GOES 3                  
1 10953U 78062A   26062.47582815 -.00000267  00000+0  00000+0 0  9991
2 10953   7.1409 300.0544 0002831 354.6494 199.3130  0.99365908127483
GOES 4                  
1 11964U 80074A   26062.37060292 -.00000254  00000+0  00000+0 0  9995
2 11964   8.2145 303.7385 0032089 103.0150 199.2874  0.99231464126382
GOES 5                  
1 12472U 81049A   26062.14113352 -.00000207  00000+0  00000+0 0  9992
2 12472   9.5481 316.3502 0004669 336.7595 190.2431  1.00211746121789
GOES 6                  
1 14050U 83041A   26062.32956686 -.00000082  00000+0  00000+0 0  9996
2 14050  10.3592 321.9070 0002360 306.4375 262.1209  1.00217666214955
GOES 7                  
1 17561U 87022A   26062.40572343  .00000068  00000+0  00000+0 0  9995
2 17561  13.0217 338.3812 0003943  14.6167 182.3930  0.99894387125908
GOES 8                  
1 23051U 94022A   26062.62052756 -.00000237  00000+0  00000+0 0  9998
2 23051  14.3398  14.4761 0004983  14.0671 168.0688  0.98908132123088
GOES 9                  
1 23581U 95025A   26062.78528179 -.00000099  00000+0  00000+0 0  9990
2 23581  13.8692  15.3176 0003648 210.9063 141.1665  0.98798832111714
GOES 10                 
1 24786U 97019A   26062.56350297 -.00000113  00000+0  00000+0 0  9990
2 24786  13.0030  21.8534 0031203 239.1874 202.6903  0.99122396105023
GOES 11                 
1 26352U 00022A   26062.42946125 -.00000136  00000+0  00000+0 0  9990
2 26352  11.5782  47.4531 0005957 254.4527 302.2640  0.99041196 51421
GOES 12                 
1 26871U 01031A   26062.78918181 -.00000213  00000+0  00000+0 0  9993
2 26871  11.9936  38.1479 0008760 295.8304  54.4531  0.99137459 89713
EWS-G1 (GOES 13)        
1 29155U 06018A   26062.63647433  .00000026  00000+0  00000+0 0  9995
2 29155   4.2590  77.7119 0062002 272.9811 292.7975  0.98784788 42204
GOES 14                 
1 35491U 09033A   26062.69783465  .00000115  00000+0  00000+0 0  9996
2 35491   1.4171  84.4315 0002209 297.0894 233.3639  1.00123964  5533
EWS-G2 (GOES 15)        
1 36411U 10008A   26062.76647534  .00000008  00000+0  00000+0 0  9998
2 36411   1.0075  85.1610 0001695  23.0222  32.7596  1.00269377 58586
GOES 16                 
1 41866U 16071A   26062.56575395 -.00000105  00000+0  00000+0 0  9996
2 41866   0.1452  90.1946 0002571 216.7975 313.3003  1.00271662 34049
GOES 17                 
1 43226U 18022A   26062.64011435 -.00000196  00000+0  00000+0 0  9995
2 43226   0.6662  87.5708 0002289 220.2416 354.5211  1.00270410 29368
